{
"type": "FeatureCollection",
"name": "selected_blocks",
"crs": { "type": "name", "properties": { "name": "urn:ogc:def:crs:OGC:1.3:CRS84" } },
"features": [
{"type":"Feature","properties":{"block_id":"CA-62106","grts_id":62106},"geometry":{"type":"Point","coordinates":[-118.625615726660328,55.044292706842981]}},
{"type":"Feature","properties":{"block_id":"CA-252314","grts_id":252314},"geometry":{"type":"Point","coordinates":[-117.183736880861417,55.085238044578688]}},
{"type":"Feature","properties":{"block_id":"CA-297063","grts_id":297063},"geometry":{"type":"Point","coordinates":[-112.860821035741381,53.73295271997722]}},
{"type":"Feature","properties":{"block_id":"CA-89731","grts_id":89731},"geometry":{"type":"Point","coordinates":[-114.924883056946044,53.469811729772246]}},
{"type":"Feature","properties":{"block_id":"CA-110211","grts_id":110211},"geometry":{"type":"Point","coordinates":[-114.305748569615986,53.460837682732652]}},
{"type":"Feature","properties":{"block_id":"CA-106115","grts_id":106115},"geometry":{"type":"Point","coordinates":[-114.453394137880849,53.444121121502604]}},
{"type":"Feature","properties":{"block_id":"CA-258243","grts_id":258243},"geometry":{"type":"Point","coordinates":[-113.363269982734707,53.398428140656861]}},
{"type":"Feature","properties":{"block_id":"CA-160963","grts_id":160963},"geometry":{"type":"Point","coordinates":[-112.304262882109128,53.432927635251268]}},
{"type":"Feature","properties":{"block_id":"CA-312961","grts_id":312961},"geometry":{"type":"Point","coordinates":[-111.928483305770953,53.200067659702356]}},
{"type":"Feature","properties":{"block_id":"CA-282996","grts_id":282996},"geometry":{"type":"Point","coordinates":[-112.347986994613251,52.597393844620541]}},
{"type":"Feature","properties":{"block_id":"CA-327029","grts_id":327029},"geometry":{"type":"Point","coordinates":[-112.292088161110783,52.414224872912513]}},
{"type":"Feature","properties":{"block_id":"CA-180419","grts_id":180419},"geometry":{"type":"Point","coordinates":[-112.241662833401833,52.24748813563501]}},
{"type":"Feature","properties":{"block_id":"CA-319023","grts_id":319023},"geometry":{"type":"Point","coordinates":[-65.151139252977003,47.671710661722187]}},
{"type":"Feature","properties":{"block_id":"CA-161804","grts_id":161804},"geometry":{"type":"Point","coordinates":[-65.281644428161016,47.514305008819683]}},
{"type":"Feature","properties":{"block_id":"CA-127948","grts_id":127948},"geometry":{"type":"Point","coordinates":[-61.241768097533736,46.065842686630042]}},
{"type":"Feature","properties":{"block_id":"CA-277968","grts_id":277968},"geometry":{"type":"Point","coordinates":[-106.648832289906622,52.277453720462645]}},
{"type":"Feature","properties":{"block_id":"CA-195576","grts_id":195576},"geometry":{"type":"Point","coordinates":[-65.814931200441521,47.414034045964904]}},
{"type":"Feature","properties":{"block_id":"CA-40490","grts_id":40490},"geometry":{"type":"Point","coordinates":[-119.344986517638631,50.77842207490999]}},
{"type":"Feature","properties":{"block_id":"CA-69624","grts_id":69624},"geometry":{"type":"Point","coordinates":[-65.476851006842253,47.276389000336664]}},
{"type":"Feature","properties":{"block_id":"CA-219084","grts_id":219084},"geometry":{"type":"Point","coordinates":[-60.85551839794816,45.659294200311095]}},
{"type":"Feature","properties":{"block_id":"CA-291672","grts_id":291672},"geometry":{"type":"Point","coordinates":[-107.453009846144283,51.859266336406222]}},
{"type":"Feature","properties":{"block_id":"CA-90104","grts_id":90104},"geometry":{"type":"Point","coordinates":[-66.235172958182901,47.262526199897941]}},
{"type":"Feature","properties":{"block_id":"CA-71628","grts_id":71628},"geometry":{"type":"Point","coordinates":[-61.10041757569627,45.556250322862326]}},
{"type":"Feature","properties":{"block_id":"CA-327985","grts_id":327985},"geometry":{"type":"Point","coordinates":[-106.14678310645067,51.86176828938936]}},
{"type":"Feature","properties":{"block_id":"CA-268257","grts_id":268257},"geometry":{"type":"Point","coordinates":[-65.669878334446537,47.038175869774548]}},
{"type":"Feature","properties":{"block_id":"CA-35203","grts_id":35203},"geometry":{"type":"Point","coordinates":[-107.72441290704171,51.755791239172815]}},
{"type":"Feature","properties":{"block_id":"CA-244428","grts_id":244428},"geometry":{"type":"Point","coordinates":[-63.32839616114768,46.263725194805673]}},
{"type":"Feature","properties":{"block_id":"CA-251203","grts_id":251203},"geometry":{"type":"Point","coordinates":[-104.398115406245736,51.7669959323214]}},
{"type":"Feature","properties":{"block_id":"CA-102156","grts_id":102156},"geometry":{"type":"Point","coordinates":[-71.048606083882632,48.354873835473839]}},
{"type":"Feature","properties":{"block_id":"CA-219212","grts_id":219212},"geometry":{"type":"Point","coordinates":[-69.43962804864293,47.920854979363568]}},
{"type":"Feature","properties":{"block_id":"CA-79864","grts_id":79864},"geometry":{"type":"Point","coordinates":[-67.053674319184438,47.163783604628662]}},
{"type":"Feature","properties":{"block_id":"CA-70211","grts_id":70211},"geometry":{"type":"Point","coordinates":[-107.532434888444186,51.497154892915795]}},
{"type":"Feature","properties":{"block_id":"CA-97272","grts_id":97272},"geometry":{"type":"Point","coordinates":[-65.749305188052816,46.753820995283263]}},
{"type":"Feature","properties":{"block_id":"CA-326956","grts_id":326956},"geometry":{"type":"Point","coordinates":[-61.375558065570154,45.250418701872846]}},
{"type":"Feature","properties":{"block_id":"CA-262136","grts_id":262136},"geometry":{"type":"Point","coordinates":[-66.148095424188398,46.809998772454925]}},
{"type":"Feature","properties":{"block_id":"CA-159043","grts_id":159043},"geometry":{"type":"Point","coordinates":[-106.52139212269671,51.476496684863093]}},
{"type":"Feature","properties":{"block_id":"CA-131084","grts_id":131084},"geometry":{"type":"Point","coordinates":[-65.922707267062421,46.721575697178253]}},
{"type":"Feature","properties":{"block_id":"CA-7491","grts_id":7491},"geometry":{"type":"Point","coordinates":[-106.506844371267121,51.382984199783124]}},
{"type":"Feature","properties":{"block_id":"CA-76236","grts_id":76236},"geometry":{"type":"Point","coordinates":[-64.924162338583344,46.310200900433074]}},
{"type":"Feature","properties":{"block_id":"CA-231884","grts_id":231884},"geometry":{"type":"Point","coordinates":[-64.593091083714739,46.173132943462839]}},
{"type":"Feature","properties":{"block_id":"CA-199304","grts_id":199304},"geometry":{"type":"Point","coordinates":[-99.35577453750642,51.492083855347431]}},
{"type":"Feature","properties":{"block_id":"CA-171000","grts_id":171000},"geometry":{"type":"Point","coordinates":[-66.610136449395725,46.78414810726575]}},
{"type":"Feature","properties":{"block_id":"CA-284868","grts_id":284868},"geometry":{"type":"Point","coordinates":[-104.646877980029245,51.408125621700236]}},
{"type":"Feature","properties":{"block_id":"CA-160323","grts_id":160323},"geometry":{"type":"Point","coordinates":[-107.343617110086029,51.242649944200465]}},
{"type":"Feature","properties":{"block_id":"CA-116812","grts_id":116812},"geometry":{"type":"Point","coordinates":[-69.670663087418106,47.596062334477352]}},
{"type":"Feature","properties":{"block_id":"CA-170700","grts_id":170700},"geometry":{"type":"Point","coordinates":[-63.8334095880235,45.841975397569421]}},
{"type":"Feature","properties":{"block_id":"CA-203139","grts_id":203139},"geometry":{"type":"Point","coordinates":[-108.894588840800083,51.118942164640671]}},
{"type":"Feature","properties":{"block_id":"CA-72696","grts_id":72696},"geometry":{"type":"Point","coordinates":[-67.01245724133517,46.833650971610609]}},
{"type":"Feature","properties":{"block_id":"CA-243331","grts_id":243331},"geometry":{"type":"Point","coordinates":[-109.455263687581521,51.064012574217642]}},
{"type":"Feature","properties":{"block_id":"CA-2691","grts_id":2691},"geometry":{"type":"Point","coordinates":[-109.59443649470839,51.046453501022057]}},
{"type":"Feature","properties":{"block_id":"CA-161740","grts_id":161740},"geometry":{"type":"Point","coordinates":[-62.591385969794544,45.389169237893668]}},
{"type":"Feature","properties":{"block_id":"CA-100995","grts_id":100995},"geometry":{"type":"Point","coordinates":[-110.994129309347471,50.916259185937029]}},
{"type":"Feature","properties":{"block_id":"CA-199116","grts_id":199116},"geometry":{"type":"Point","coordinates":[-64.440531502055933,45.999358336178375]}},
{"type":"Feature","properties":{"block_id":"CA-303639","grts_id":303639},"geometry":{"type":"Point","coordinates":[-63.404526744720897,45.649158617531086]}},
{"type":"Feature","properties":{"block_id":"CA-317203","grts_id":317203},"geometry":{"type":"Point","coordinates":[-123.06896600486121,49.21051150775132]}},
{"type":"Feature","properties":{"block_id":"CA-121548","grts_id":121548},"geometry":{"type":"Point","coordinates":[-64.115526726443932,45.857358164084864]}},
{"type":"Feature","properties":{"block_id":"CA-211331","grts_id":211331},"geometry":{"type":"Point","coordinates":[-108.031195782841507,51.09221616090084]}},
{"type":"Feature","properties":{"block_id":"CA-109260","grts_id":109260},"geometry":{"type":"Point","coordinates":[-63.790369629280548,45.716616889723703]}},
{"type":"Feature","properties":{"block_id":"CA-122572","grts_id":122572},"geometry":{"type":"Point","coordinates":[-62.871093428279515,45.407668282601719]}},
{"type":"Feature","properties":{"block_id":"CA-117379","grts_id":117379},"geometry":{"type":"Point","coordinates":[-110.691620559558515,50.852030837862252]}},
{"type":"Feature","properties":{"block_id":"CA-189251","grts_id":189251},"geometry":{"type":"Point","coordinates":[-102.635432140376338,51.276498252831161]}},
{"type":"Feature","properties":{"block_id":"CA-73786","grts_id":73786},"geometry":{"type":"Point","coordinates":[-123.021802103259432,49.123136316204281]}},
{"type":"Feature","properties":{"block_id":"CA-210380","grts_id":210380},"geometry":{"type":"Point","coordinates":[-65.005007277810307,46.028142833174151]}},
{"type":"Feature","properties":{"block_id":"CA-166536","grts_id":166536},"geometry":{"type":"Point","coordinates":[-99.359908063877867,51.220917427319336]}},
{"type":"Feature","properties":{"block_id":"CA-233096","grts_id":233096},"geometry":{"type":"Point","coordinates":[-99.075163818656108,51.234674485882238]}},
{"type":"Feature","properties":{"block_id":"CA-85640","grts_id":85640},"geometry":{"type":"Point","coordinates":[-98.506316262275618,51.22460705770186]}},
{"type":"Feature","properties":{"block_id":"CA-78152","grts_id":78152},"geometry":{"type":"Point","coordinates":[-96.093779343753724,51.141083199244328]}},
{"type":"Feature","properties":{"block_id":"CA-258371","grts_id":258371},"geometry":{"type":"Point","coordinates":[-104.757434798119988,51.119906751443523]}},
{"type":"Feature","properties":{"block_id":"CA-174540","grts_id":174540},"geometry":{"type":"Point","coordinates":[-65.508731544490871,46.131069354014542]}},
{"type":"Feature","properties":{"block_id":"CA-85315","grts_id":85315},"geometry":{"type":"Point","coordinates":[-106.028191773510088,51.046204437604572]}},
{"type":"Feature","properties":{"block_id":"CA-323090","grts_id":323090},"geometry":{"type":"Point","coordinates":[-106.169410213423674,51.039181546880513]}},
{"type":"Feature","properties":{"block_id":"CA-137676","grts_id":137676},"geometry":{"type":"Point","coordinates":[-65.179927910447219,45.992640058703984]}},
{"type":"Feature","properties":{"block_id":"CA-134531","grts_id":134531},"geometry":{"type":"Point","coordinates":[-108.277369840245441,50.890569920679667]}},
{"type":"Feature","properties":{"block_id":"CA-316864","grts_id":316864},"geometry":{"type":"Point","coordinates":[-62.200280926242449,44.986475461575395]}},
{"type":"Feature","properties":{"block_id":"CA-305397","grts_id":305397},"geometry":{"type":"Point","coordinates":[-65.069076243492006,45.948325481103097]}},
{"type":"Feature","properties":{"block_id":"CA-205068","grts_id":205068},"geometry":{"type":"Point","coordinates":[-67.082045766124395,46.549935323892029]}},
{"type":"Feature","properties":{"block_id":"CA-79491","grts_id":79491},"geometry":{"type":"Point","coordinates":[-110.090976535876337,50.727713053577197]}},
{"type":"Feature","properties":{"block_id":"CA-219779","grts_id":219779},"geometry":{"type":"Point","coordinates":[-110.23018301332857,50.715078139491233]}},
{"type":"Feature","properties":{"block_id":"CA-105091","grts_id":105091},"geometry":{"type":"Point","coordinates":[-110.369381101516524,50.702555297785182]}},
{"type":"Feature","properties":{"block_id":"CA-114243","grts_id":114243},"geometry":{"type":"Point","coordinates":[-103.756924945614998,51.061165198953944]}},
{"type":"Feature","properties":{"block_id":"CA-267782","grts_id":267782},"geometry":{"type":"Point","coordinates":[-111.061473494214127,50.626986576305853]}},
{"type":"Feature","properties":{"block_id":"CA-96579","grts_id":96579},"geometry":{"type":"Point","coordinates":[-104.606184396214672,51.037253796107819]}},
{"type":"Feature","properties":{"block_id":"CA-316708","grts_id":316708},"geometry":{"type":"Point","coordinates":[-111.614352419154287,50.566850213118627]}},
{"type":"Feature","properties":{"block_id":"CA-99651","grts_id":99651},"geometry":{"type":"Point","coordinates":[-105.453381642217551,50.998846944386813]}},
{"type":"Feature","properties":{"block_id":"CA-116472","grts_id":116472},"geometry":{"type":"Point","coordinates":[-70.018443819157341,47.306157117235415]}},
{"type":"Feature","properties":{"block_id":"CA-181516","grts_id":181516},"geometry":{"type":"Point","coordinates":[-66.298424489240631,46.241288421448381]}},
{"type":"Feature","properties":{"block_id":"CA-27011","grts_id":27011},"geometry":{"type":"Point","coordinates":[-108.539849080083002,50.781114917414378]}},
{"type":"Feature","properties":{"block_id":"CA-255619","grts_id":255619},"geometry":{"type":"Point","coordinates":[-109.932027455513634,50.656145153783342]}},
{"type":"Feature","properties":{"block_id":"CA-61132","grts_id":61132},"geometry":{"type":"Point","coordinates":[-62.961007823700356,45.128236651151525]}},
{"type":"Feature","properties":{"block_id":"CA-55939","grts_id":55939},"geometry":{"type":"Point","coordinates":[-110.484920851966464,50.594356433210095]}},
{"type":"Feature","properties":{"block_id":"CA-23363","grts_id":23363},"geometry":{"type":"Point","coordinates":[-102.760539729837575,51.010350691745259]}},
{"type":"Feature","properties":{"block_id":"CA-231875","grts_id":231875},"geometry":{"type":"Point","coordinates":[-111.177101006427137,50.525778501723607]}},
{"type":"Feature","properties":{"block_id":"CA-48200","grts_id":48200},"geometry":{"type":"Point","coordinates":[-95.40383386576346,50.944856200277933]}},
{"type":"Feature","properties":{"block_id":"CA-268356","grts_id":268356},"geometry":{"type":"Point","coordinates":[-105.159020043044677,50.912728296348455]}},
{"type":"Feature","properties":{"block_id":"CA-283840","grts_id":283840},"geometry":{"type":"Point","coordinates":[-62.43775400400898,44.881057247455942]}},
{"type":"Feature","properties":{"block_id":"CA-197251","grts_id":197251},"geometry":{"type":"Point","coordinates":[-110.602608749485,50.496988320298989]}},
{"type":"Feature","properties":{"block_id":"CA-154435","grts_id":154435},"geometry":{"type":"Point","coordinates":[-102.472110776919394,50.921681860191029]}},
{"type":"Feature","properties":{"block_id":"CA-183368","grts_id":183368},"geometry":{"type":"Point","coordinates":[-95.976581816664975,50.878097183153336]}},
{"type":"Feature","properties":{"block_id":"CA-182851","grts_id":182851},"geometry":{"type":"Point","coordinates":[-106.690499872968303,50.735135051655369]}},
{"type":"Feature","properties":{"block_id":"CA-272044","grts_id":272044},"geometry":{"type":"Point","coordinates":[-108.920173473182913,50.563671956288786]}},
{"type":"Feature","properties":{"block_id":"CA-82563","grts_id":82563},"geometry":{"type":"Point","coordinates":[-110.85585343036098,50.378634633956182]}},
{"type":"Feature","properties":{"block_id":"CA-218691","grts_id":218691},"geometry":{"type":"Point","coordinates":[-106.117891810027771,50.682721173142525]}},
{"type":"Feature","properties":{"block_id":"CA-643","grts_id":643},"geometry":{"type":"Point","coordinates":[-110.283485675874857,50.347770538142463]}},
{"type":"Feature","properties":{"block_id":"CA-9347","grts_id":9347},"geometry":{"type":"Point","coordinates":[-101.477723253369149,50.768177772803824]}},
{"type":"Feature","properties":{"block_id":"CA-213276","grts_id":213276},"geometry":{"type":"Point","coordinates":[-65.103738822624848,45.539128509190434]}},
{"type":"Feature","properties":{"block_id":"CA-19528","grts_id":19528},"geometry":{"type":"Point","coordinates":[-95.85305634788412,50.695075027624185]}},
{"type":"Feature","properties":{"block_id":"CA-82627","grts_id":82627},"geometry":{"type":"Point","coordinates":[-111.107347008391855,50.258205370785767]}},
{"type":"Feature","properties":{"block_id":"CA-76867","grts_id":76867},"geometry":{"type":"Point","coordinates":[-104.566673676196885,50.670507543284565]}},
{"type":"Feature","properties":{"block_id":"CA-16707","grts_id":16707},"geometry":{"type":"Point","coordinates":[-105.125602631624275,50.635599444714316]}},
{"type":"Feature","properties":{"block_id":"CA-64963","grts_id":64963},"geometry":{"type":"Point","coordinates":[-111.654684312483795,50.194953634888876]}},
{"type":"Feature","properties":{"block_id":"CA-178504","grts_id":178504},"geometry":{"type":"Point","coordinates":[-94.174266946495294,50.608387457627344]}},
{"type":"Feature","properties":{"block_id":"CA-194888","grts_id":194888},"geometry":{"type":"Point","coordinates":[-94.035019666556991,50.597579511235772]}},
{"type":"Feature","properties":{"block_id":"CA-121160","grts_id":121160},"geometry":{"type":"Point","coordinates":[-93.338748866762458,50.547930215184039]}},
{"type":"Feature","properties":{"block_id":"CA-310881","grts_id":310881},"geometry":{"type":"Point","coordinates":[-97.543572421953343,50.649939707781058]}},
{"type":"Feature","properties":{"block_id":"CA-220227","grts_id":220227},"geometry":{"type":"Point","coordinates":[-103.998004955291094,50.607498358472455]}},
{"type":"Feature","properties":{"block_id":"CA-267133","grts_id":267133},"geometry":{"type":"Point","coordinates":[-105.115946223779474,50.554847143285286]}},
{"type":"Feature","properties":{"block_id":"CA-325843","grts_id":325843},"geometry":{"type":"Point","coordinates":[-105.255204557012263,50.545104991722013]}},
{"type":"Feature","properties":{"block_id":"CA-311279","grts_id":311279},"geometry":{"type":"Point","coordinates":[-111.494533599588266,50.123446205171092]}},
{"type":"Feature","properties":{"block_id":"CA-33475","grts_id":33475},"geometry":{"type":"Point","coordinates":[-111.629961014695425,50.103724722465671]}},
{"type":"Feature","properties":{"block_id":"CA-185612","grts_id":185612},"geometry":{"type":"Point","coordinates":[-66.936991175051716,45.973480933566648]}},
{"type":"Feature","properties":{"block_id":"CA-179331","grts_id":179331},"geometry":{"type":"Point","coordinates":[-109.001595544618439,50.279380153783947]}},
{"type":"Feature","properties":{"block_id":"CA-162332","grts_id":162332},"geometry":{"type":"Point","coordinates":[-63.499625391335869,44.832164969315201]}},
{"type":"Feature","properties":{"block_id":"CA-280302","grts_id":280302},"geometry":{"type":"Point","coordinates":[-110.376883766936345,50.150943416549737]}},
{"type":"Feature","properties":{"block_id":"CA-248643","grts_id":248643},"geometry":{"type":"Point","coordinates":[-102.030899485891368,50.559562010609753]}},
{"type":"Feature","properties":{"block_id":"CA-117571","grts_id":117571},"geometry":{"type":"Point","coordinates":[-102.170384802522435,50.54774601063248]}},
{"type":"Feature","properties":{"block_id":"CA-121928","grts_id":121928},"geometry":{"type":"Point","coordinates":[-96.429451910610879,50.533216323233589]}},
{"type":"Feature","properties":{"block_id":"CA-262240","grts_id":262240},"geometry":{"type":"Point","coordinates":[-104.686606769009416,50.480531434214953]}},
{"type":"Feature","properties":{"block_id":"CA-113091","grts_id":113091},"geometry":{"type":"Point","coordinates":[-112.150894422216084,49.953766835130828]}},
{"type":"Feature","properties":{"block_id":"CA-112500","grts_id":112500},"geometry":{"type":"Point","coordinates":[-91.980725724975372,50.277611774336066]}},
{"type":"Feature","properties":{"block_id":"CA-96796","grts_id":96796},"geometry":{"type":"Point","coordinates":[-63.66876108711449,44.802490677981154]}},
{"type":"Feature","properties":{"block_id":"CA-291050","grts_id":291050},"geometry":{"type":"Point","coordinates":[-63.563523583536764,44.754279074607346]}},
{"type":"Feature","properties":{"block_id":"CA-126339","grts_id":126339},"geometry":{"type":"Point","coordinates":[-110.356087784572736,50.064462338584676]}},
{"type":"Feature","properties":{"block_id":"CA-31260","grts_id":31260},"geometry":{"type":"Point","coordinates":[-63.354493263057151,44.656464919401088]}},
{"type":"Feature","properties":{"block_id":"CA-316516","grts_id":316516},"geometry":{"type":"Point","coordinates":[-103.702156605634826,50.43395442300308]}},
{"type":"Feature","properties":{"block_id":"CA-89155","grts_id":89155},"geometry":{"type":"Point","coordinates":[-103.980690031322069,50.420995182682496]}},
{"type":"Feature","properties":{"block_id":"CA-320569","grts_id":320569},"geometry":{"type":"Point","coordinates":[-95.322972395444708,50.392465736998567]}},
{"type":"Feature","properties":{"block_id":"CA-191224","grts_id":191224},"geometry":{"type":"Point","coordinates":[-70.993698684167839,46.925301299618795]}},
{"type":"Feature","properties":{"block_id":"CA-322157","grts_id":322157},"geometry":{"type":"Point","coordinates":[-67.281151426791311,45.897516679542875]}},
{"type":"Feature","properties":{"block_id":"CA-162120","grts_id":162120},"geometry":{"type":"Point","coordinates":[-94.073372056082349,50.32050710626131]}},
{"type":"Feature","properties":{"block_id":"CA-261251","grts_id":261251},"geometry":{"type":"Point","coordinates":[-108.963760460926522,50.097831996288022]}},
{"type":"Feature","properties":{"block_id":"CA-233740","grts_id":233740},"geometry":{"type":"Point","coordinates":[-67.674448806948405,45.947355615820882]}},
{"type":"Feature","properties":{"block_id":"CA-256904","grts_id":256904},"geometry":{"type":"Point","coordinates":[-99.372254160549815,50.400937570192987]}},
{"type":"Feature","properties":{"block_id":"CA-3203","grts_id":3203},"geometry":{"type":"Point","coordinates":[-101.744381574472811,50.402813241765422]}},
{"type":"Feature","properties":{"block_id":"CA-162627","grts_id":162627},"geometry":{"type":"Point","coordinates":[-102.719630751681876,50.37132948993785]}},
{"type":"Feature","properties":{"block_id":"CA-326608","grts_id":326608},"geometry":{"type":"Point","coordinates":[-102.998178260616527,50.363142828352579]}},
{"type":"Feature","properties":{"block_id":"CA-2883","grts_id":2883},"geometry":{"type":"Point","coordinates":[-103.137458144194454,50.359421703645566]}},
{"type":"Feature","properties":{"block_id":"CA-200131","grts_id":200131},"geometry":{"type":"Point","coordinates":[-112.234179922797836,49.752152585030487]}},
{"type":"Feature","properties":{"block_id":"CA-275807","grts_id":275807},"geometry":{"type":"Point","coordinates":[-81.208347262873332,48.902983349112418]}},
{"type":"Feature","properties":{"block_id":"CA-76931","grts_id":76931},"geometry":{"type":"Point","coordinates":[-108.809549949743982,50.027164208662981]}},
{"type":"Feature","properties":{"block_id":"CA-134979","grts_id":134979},"geometry":{"type":"Point","coordinates":[-102.019185829003916,50.309590646705921]}},
{"type":"Feature","properties":{"block_id":"CA-200515","grts_id":200515},"geometry":{"type":"Point","coordinates":[-102.158452001376418,50.308917235539539]}},
{"type":"Feature","properties":{"block_id":"CA-111240","grts_id":111240},"geometry":{"type":"Point","coordinates":[-97.009257734553245,50.25605794721794]}},
{"type":"Feature","properties":{"block_id":"CA-227139","grts_id":227139},"geometry":{"type":"Point","coordinates":[-103.547759974947724,50.257301249864867]}},
{"type":"Feature","properties":{"block_id":"CA-322710","grts_id":322710},"geometry":{"type":"Point","coordinates":[-96.312979157449462,50.257200188918176]}},
{"type":"Feature","properties":{"block_id":"CA-55368","grts_id":55368},"geometry":{"type":"Point","coordinates":[-95.898890995337268,50.217020849686193]}},
{"type":"Feature","properties":{"block_id":"CA-282651","grts_id":282651},"geometry":{"type":"Point","coordinates":[-104.379626780383973,50.217841771083499]}},
{"type":"Feature","properties":{"block_id":"CA-280320","grts_id":280320},"geometry":{"type":"Point","coordinates":[-111.128002815376533,49.794006007517766]}},
{"type":"Feature","properties":{"block_id":"CA-313994","grts_id":313994},"geometry":{"type":"Point","coordinates":[-106.732055734546236,50.10291552385597]}},
{"type":"Feature","properties":{"block_id":"CA-52764","grts_id":52764},"geometry":{"type":"Point","coordinates":[-63.651552448839141,44.469688923309114]}},
{"type":"Feature","properties":{"block_id":"CA-149635","grts_id":149635},"geometry":{"type":"Point","coordinates":[-100.90263501632279,50.201815495737677]}},
{"type":"Feature","properties":{"block_id":"CA-330067","grts_id":330067},"geometry":{"type":"Point","coordinates":[-101.180772059266133,50.212183116331275]}},
{"type":"Feature","properties":{"block_id":"CA-310401","grts_id":310401},"geometry":{"type":"Point","coordinates":[-103.540285880715956,50.166015230413279]}},
{"type":"Feature","properties":{"block_id":"CA-163144","grts_id":163144},"geometry":{"type":"Point","coordinates":[-94.524948591967785,50.066600948711816]}},
{"type":"Feature","properties":{"block_id":"CA-276900","grts_id":276900},"geometry":{"type":"Point","coordinates":[-67.459123758697501,45.655496817838042]}},
{"type":"Feature","properties":{"block_id":"CA-110876","grts_id":110876},"geometry":{"type":"Point","coordinates":[-66.299578047459576,45.295759624901137]}},
{"type":"Feature","properties":{"block_id":"CA-280701","grts_id":280701},"geometry":{"type":"Point","coordinates":[-81.671737796613911,48.801827572778663]}},
{"type":"Feature","properties":{"block_id":"CA-9795","grts_id":9795},"geometry":{"type":"Point","coordinates":[-106.852731258815766,49.985234550640811]}},
{"type":"Feature","properties":{"block_id":"CA-55156","grts_id":55156},"geometry":{"type":"Point","coordinates":[-92.048156901219429,49.912304201031368]}},
{"type":"Feature","properties":{"block_id":"CA-278614","grts_id":278614},"geometry":{"type":"Point","coordinates":[-91.91077863322991,49.903721627399271]}},
{"type":"Feature","properties":{"block_id":"CA-251764","grts_id":251764},"geometry":{"type":"Point","coordinates":[-91.773374434421157,49.895391004875293]}},
{"type":"Feature","properties":{"block_id":"CA-156940","grts_id":156940},"geometry":{"type":"Point","coordinates":[-66.906418094161481,45.438193126513085]}},
{"type":"Feature","properties":{"block_id":"CA-121736","grts_id":121736},"geometry":{"type":"Point","coordinates":[-99.514438500384756,50.153564761383436]}},
{"type":"Feature","properties":{"block_id":"CA-297424","grts_id":297424},"geometry":{"type":"Point","coordinates":[-110.270738271086188,49.705725488897514]}},
{"type":"Feature","properties":{"block_id":"CA-2316","grts_id":2316},"geometry":{"type":"Point","coordinates":[-66.687419594733143,45.34935957948224]}},
{"type":"Feature","properties":{"block_id":"CA-310037","grts_id":310037},"geometry":{"type":"Point","coordinates":[-96.881238124410388,50.100790203059944]}},
{"type":"Feature","properties":{"block_id":"CA-70136","grts_id":70136},"geometry":{"type":"Point","coordinates":[-71.44358130810258,46.670524081816211]}},
{"type":"Feature","properties":{"block_id":"CA-270969","grts_id":270969},"geometry":{"type":"Point","coordinates":[-92.612449421664621,49.86088066018624]}},
{"type":"Feature","properties":{"block_id":"CA-223092","grts_id":223092},"geometry":{"type":"Point","coordinates":[-91.927319391775967,49.814660807609513]}},
{"type":"Feature","properties":{"block_id":"CA-312271","grts_id":312271},"geometry":{"type":"Point","coordinates":[-80.806996912785195,48.537499632468283]}},
{"type":"Feature","properties":{"block_id":"CA-323685","grts_id":323685},"geometry":{"type":"Point","coordinates":[-66.966676674430786,45.356782206932692]}},
{"type":"Feature","properties":{"block_id":"CA-46211","grts_id":46211},"geometry":{"type":"Point","coordinates":[-100.899670405490411,50.052145035854522]}},
{"type":"Feature","properties":{"block_id":"CA-14467","grts_id":14467},"geometry":{"type":"Point","coordinates":[-101.176220459158316,50.040517200853223]}},
{"type":"Feature","properties":{"block_id":"CA-287564","grts_id":287564},"geometry":{"type":"Point","coordinates":[-101.590691001318817,50.021886576287947]}},
{"type":"Feature","properties":{"block_id":"CA-144008","grts_id":144008},"geometry":{"type":"Point","coordinates":[-96.749383657690601,50.009033394418154]}},
{"type":"Feature","properties":{"block_id":"CA-139587","grts_id":139587},"geometry":{"type":"Point","coordinates":[-105.042518296249682,49.929971443880376]}},
{"type":"Feature","properties":{"block_id":"CA-135672","grts_id":135672},"geometry":{"type":"Point","coordinates":[-71.264630215889298,46.510160704722558]}},
{"type":"Feature","properties":{"block_id":"CA-272009","grts_id":272009},"geometry":{"type":"Point","coordinates":[-67.466708047769885,45.449971369648011]}},
{"type":"Feature","properties":{"block_id":"CA-79427","grts_id":79427},"geometry":{"type":"Point","coordinates":[-107.099915956016247,49.797154637268719]}},
{"type":"Feature","properties":{"block_id":"CA-95092","grts_id":95092},"geometry":{"type":"Point","coordinates":[-92.62711238829084,49.774249473813029]}},
{"type":"Feature","properties":{"block_id":"CA-242051","grts_id":242051},"geometry":{"type":"Point","coordinates":[-107.783253317616584,49.746665184432352]}},
{"type":"Feature","properties":{"block_id":"CA-118264","grts_id":118264},"geometry":{"type":"Point","coordinates":[-70.802737458791512,46.353073342175755]}},
{"type":"Feature","properties":{"block_id":"CA-312134","grts_id":312134},"geometry":{"type":"Point","coordinates":[-70.455784897626074,46.237539031080246]}},
{"type":"Feature","properties":{"block_id":"CA-338172","grts_id":338172},"geometry":{"type":"Point","coordinates":[-97.859773580837114,49.941643725488248]}},
{"type":"Feature","properties":{"block_id":"CA-99976","grts_id":99976},"geometry":{"type":"Point","coordinates":[-97.170838886563487,49.913409627374705]}},
{"type":"Feature","properties":{"block_id":"CA-337808","grts_id":337808},"geometry":{"type":"Point","coordinates":[-111.57540253935241,49.377368321763569]}},
{"type":"Feature","properties":{"block_id":"CA-55999","grts_id":55999},"geometry":{"type":"Point","coordinates":[-82.037682919799494,48.591019101183207]}},
{"type":"Feature","properties":{"block_id":"CA-198019","grts_id":198019},"geometry":{"type":"Point","coordinates":[-107.358329776396886,49.687885844470884]}},
{"type":"Feature","properties":{"block_id":"CA-36035","grts_id":36035},"geometry":{"type":"Point","coordinates":[-112.51167435055882,49.259375060525421]}},
{"type":"Feature","properties":{"block_id":"CA-242548","grts_id":242548},"geometry":{"type":"Point","coordinates":[-92.233099722496291,49.654737582411855]}},
{"type":"Feature","properties":{"block_id":"CA-75636","grts_id":75636},"geometry":{"type":"Point","coordinates":[-91.824527420434663,49.623318522580746]}},
{"type":"Feature","properties":{"block_id":"CA-118284","grts_id":118284},"geometry":{"type":"Point","coordinates":[-67.194895321506181,45.239366461325702]}},
{"type":"Feature","properties":{"block_id":"CA-128133","grts_id":128133},"geometry":{"type":"Point","coordinates":[-98.140165611492733,49.843985835821158]}},
{"type":"Feature","properties":{"block_id":"CA-302610","grts_id":302610},"geometry":{"type":"Point","coordinates":[-102.411416371050336,49.849656719253105]}},
{"type":"Feature","properties":{"block_id":"CA-14469","grts_id":14469},"geometry":{"type":"Point","coordinates":[-97.176348360898942,49.828173966685959]}},
{"type":"Feature","properties":{"block_id":"CA-41733","grts_id":41733},"geometry":{"type":"Point","coordinates":[-96.214350180201421,49.792545973052476]}},
{"type":"Feature","properties":{"block_id":"CA-172887","grts_id":172887},"geometry":{"type":"Point","coordinates":[-105.020612155212802,49.739810009303632]}},
{"type":"Feature","properties":{"block_id":"CA-196543","grts_id":196543},"geometry":{"type":"Point","coordinates":[-79.611214104855947,48.099126015638447]}},
{"type":"Feature","properties":{"block_id":"CA-230904","grts_id":230904},"geometry":{"type":"Point","coordinates":[-72.356713195008552,46.561645960602782]}},
{"type":"Feature","properties":{"block_id":"CA-285900","grts_id":285900},"geometry":{"type":"Point","coordinates":[-81.176753291502564,48.325224445501348]}},
{"type":"Feature","properties":{"block_id":"CA-125061","grts_id":125061},"geometry":{"type":"Point","coordinates":[-97.31921499146091,49.745751219015766]}},
{"type":"Feature","properties":{"block_id":"CA-107351","grts_id":107351},"geometry":{"type":"Point","coordinates":[-104.874153770205879,49.662036752777695]}},
{"type":"Feature","properties":{"block_id":"CA-180159","grts_id":180159},"geometry":{"type":"Point","coordinates":[-80.030752133910909,48.092409020333399]}},
{"type":"Feature","properties":{"block_id":"CA-256540","grts_id":256540},"geometry":{"type":"Point","coordinates":[-64.766190624145594,44.325488881937339]}},
{"type":"Feature","properties":{"block_id":"CA-317670","grts_id":317670},"geometry":{"type":"Point","coordinates":[-105.96626919936557,49.596041749437148]}},
{"type":"Feature","properties":{"block_id":"CA-329016","grts_id":329016},"geometry":{"type":"Point","coordinates":[-82.110569112264159,48.411546591574485]}},
{"type":"Feature","properties":{"block_id":"CA-34183","grts_id":34183},"geometry":{"type":"Point","coordinates":[-111.661080754266266,49.179203715951715]}},
{"type":"Feature","properties":{"block_id":"CA-299659","grts_id":299659},"geometry":{"type":"Point","coordinates":[-81.982061813125028,48.387224480515314]}},
{"type":"Feature","properties":{"block_id":"CA-180479","grts_id":180479},"geometry":{"type":"Point","coordinates":[-79.652146254917284,48.010102787598925]}},
{"type":"Feature","properties":{"block_id":"CA-69701","grts_id":69701},"geometry":{"type":"Point","coordinates":[-93.216488634320228,49.541730209947787]}},
{"type":"Feature","properties":{"block_id":"CA-332320","grts_id":332320},"geometry":{"type":"Point","coordinates":[-72.642407153365497,46.552351520011925]}},
{"type":"Feature","properties":{"block_id":"CA-23217","grts_id":23217},"geometry":{"type":"Point","coordinates":[-92.265470395821552,49.47155170705193]}},
{"type":"Feature","properties":{"block_id":"CA-235199","grts_id":235199},"geometry":{"type":"Point","coordinates":[-81.468066984699675,48.29144947986299]}},
{"type":"Feature","properties":{"block_id":"CA-241144","grts_id":241144},"geometry":{"type":"Point","coordinates":[-70.963760413533578,46.105855517726525]}},
{"type":"Feature","properties":{"block_id":"CA-211903","grts_id":211903},"geometry":{"type":"Point","coordinates":[-80.832392865990641,48.159247639790479]}},
{"type":"Feature","properties":{"block_id":"CA-233976","grts_id":233976},"geometry":{"type":"Point","coordinates":[-72.057872345042938,46.366676047142349]}},
{"type":"Feature","properties":{"block_id":"CA-190597","grts_id":190597},"geometry":{"type":"Point","coordinates":[-97.462055060282268,49.654258237409728]}},
{"type":"Feature","properties":{"block_id":"CA-85951","grts_id":85951},"geometry":{"type":"Point","coordinates":[-80.450270219713417,48.083596159606607]}},
{"type":"Feature","properties":{"block_id":"CA-43141","grts_id":43141},"geometry":{"type":"Point","coordinates":[-96.914105758308807,49.637893403965364]}},
{"type":"Feature","properties":{"block_id":"CA-322057","grts_id":322057},"geometry":{"type":"Point","coordinates":[-80.323451011283993,48.057428673554149]}},
{"type":"Feature","properties":{"block_id":"CA-78679","grts_id":78679},"geometry":{"type":"Point","coordinates":[-104.863382810229112,49.564855445705291]}},
{"type":"Feature","properties":{"block_id":"CA-259463","grts_id":259463},"geometry":{"type":"Point","coordinates":[-111.370549965361448,49.121010942465276]}},
{"type":"Feature","properties":{"block_id":"CA-235095","grts_id":235095},"geometry":{"type":"Point","coordinates":[-105.953716644233452,49.503434682428775]}},
{"type":"Feature","properties":{"block_id":"CA-296469","grts_id":296469},"geometry":{"type":"Point","coordinates":[-79.692795799487527,47.921315776857696]}},
{"type":"Feature","properties":{"block_id":"CA-217157","grts_id":217157},"geometry":{"type":"Point","coordinates":[-93.366380515674635,49.459680802547155]}},
{"type":"Feature","properties":{"block_id":"CA-283100","grts_id":283100},"geometry":{"type":"Point","coordinates":[-64.721646127672102,44.200620706982207]}},
{"type":"Feature","properties":{"block_id":"CA-213247","grts_id":213247},"geometry":{"type":"Point","coordinates":[-79.567644349260419,47.892452027458177]}},
{"type":"Feature","properties":{"block_id":"CA-155128","grts_id":155128},"geometry":{"type":"Point","coordinates":[-71.247065579552213,46.100689075665926]}},
{"type":"Feature","properties":{"block_id":"CA-96945","grts_id":96945},"geometry":{"type":"Point","coordinates":[-91.605223590140866,49.326246117835908]}},
{"type":"Feature","properties":{"block_id":"CA-142840","grts_id":142840},"geometry":{"type":"Point","coordinates":[-70.787009614532451,45.946639624778328]}},
{"type":"Feature","properties":{"block_id":"CA-219223","grts_id":219223},"geometry":{"type":"Point","coordinates":[-100.890534520135304,49.605132748516908]}},
{"type":"Feature","properties":{"block_id":"CA-269120","grts_id":269120},"geometry":{"type":"Point","coordinates":[-99.109465479864696,49.605132748516908]}},
{"type":"Feature","properties":{"block_id":"CA-111096","grts_id":111096},"geometry":{"type":"Point","coordinates":[-71.993786718072982,46.245409727068918]}},
{"type":"Feature","properties":{"block_id":"CA-328526","grts_id":328526},"geometry":{"type":"Point","coordinates":[-101.849007607692414,49.587746046114205]}},
{"type":"Feature","properties":{"block_id":"CA-229631","grts_id":229631},"geometry":{"type":"Point","coordinates":[-79.858359581050465,47.861192983986435]}},
{"type":"Feature","properties":{"block_id":"CA-285270","grts_id":285270},"geometry":{"type":"Point","coordinates":[-107.973836573745842,49.274229958280372]}},
{"type":"Feature","properties":{"block_id":"CA-189724","grts_id":189724},"geometry":{"type":"Point","coordinates":[-65.585023542914684,44.364541788345676]}},
{"type":"Feature","properties":{"block_id":"CA-26711","grts_id":26711},"geometry":{"type":"Point","coordinates":[-100.341806931288374,49.500943653255902]}},
{"type":"Feature","properties":{"block_id":"CA-154437","grts_id":154437},"geometry":{"type":"Point","coordinates":[-99.248554394276496,49.484262530174846]}},
{"type":"Feature","properties":{"block_id":"CA-209400","grts_id":209400},"geometry":{"type":"Point","coordinates":[-72.046241542434842,46.161109549347586]}},
{"type":"Feature","properties":{"block_id":"CA-51333","grts_id":51333},"geometry":{"type":"Point","coordinates":[-97.813559936075904,49.485446809759708]}},
{"type":"Feature","properties":{"block_id":"CA-78167","grts_id":78167},"geometry":{"type":"Point","coordinates":[-103.482124820351885,49.441241649156041]}},
{"type":"Feature","properties":{"block_id":"CA-29015","grts_id":29015},"geometry":{"type":"Point","coordinates":[-103.619507170221866,49.449671087034346]}},
{"type":"Feature","properties":{"block_id":"CA-29445","grts_id":29445},"geometry":{"type":"Point","coordinates":[-95.973556185465981,49.413544019507484]}},
{"type":"Feature","properties":{"block_id":"CA-75525","grts_id":75525},"geometry":{"type":"Point","coordinates":[-95.02052430081693,49.377929306514275]}},
{"type":"Feature","properties":{"block_id":"CA-324675","grts_id":324675},"geometry":{"type":"Point","coordinates":[-71.982847355688449,46.039139769660842]}},
{"type":"Feature","properties":{"block_id":"CA-296307","grts_id":296307},"geometry":{"type":"Point","coordinates":[-80.31257631207265,47.769791637455043]}},
{"type":"Feature","properties":{"block_id":"CA-229089","grts_id":229089},"geometry":{"type":"Point","coordinates":[-80.06159949966775,47.715604248672278]}},
{"type":"Feature","properties":{"block_id":"CA-2737","grts_id":2737},"geometry":{"type":"Point","coordinates":[-93.001767035185082,49.162651937816818]}},
{"type":"Feature","properties":{"block_id":"CA-117425","grts_id":117425},"geometry":{"type":"Point","coordinates":[-92.328903298377668,49.107845014488902]}},
{"type":"Feature","properties":{"block_id":"CA-13816","grts_id":13816},"geometry":{"type":"Point","coordinates":[-72.381554832403367,46.067952100108172]}},
{"type":"Feature","properties":{"block_id":"CA-145221","grts_id":145221},"geometry":{"type":"Point","coordinates":[-99.79590749466243,49.318889432556531]}},
{"type":"Feature","properties":{"block_id":"CA-124741","grts_id":124741},"geometry":{"type":"Point","coordinates":[-99.659856200776474,49.317235039781437]}},
{"type":"Feature","properties":{"block_id":"CA-236357","grts_id":236357},"geometry":{"type":"Point","coordinates":[-99.115230551401169,49.315172969677661]}},
{"type":"Feature","properties":{"block_id":"CA-128087","grts_id":128087},"geometry":{"type":"Point","coordinates":[-101.428440957623849,49.293809758725217]}},
{"type":"Feature","properties":{"block_id":"CA-292824","grts_id":292824},"geometry":{"type":"Point","coordinates":[-101.973836298807896,49.315495248636552]}},
{"type":"Feature","properties":{"block_id":"CA-78597","grts_id":78597},"geometry":{"type":"Point","coordinates":[-96.260621428946166,49.250700812468068]}},
{"type":"Feature","properties":{"block_id":"CA-140887","grts_id":140887},"geometry":{"type":"Point","coordinates":[-105.904473499006059,49.136237420585275]}},
{"type":"Feature","properties":{"block_id":"CA-55009","grts_id":55009},"geometry":{"type":"Point","coordinates":[-82.285191566511941,47.975153034203359]}},
{"type":"Feature","properties":{"block_id":"CA-196321","grts_id":196321},"geometry":{"type":"Point","coordinates":[-79.974801118481793,47.602086507722674]}},
{"type":"Feature","properties":{"block_id":"CA-26437","grts_id":26437},"geometry":{"type":"Point","coordinates":[-98.981716332519454,49.20964812480252]}},
{"type":"Feature","properties":{"block_id":"CA-55109","grts_id":55109},"geometry":{"type":"Point","coordinates":[-98.710382552588925,49.200459159913919]}},
{"type":"Feature","properties":{"block_id":"CA-128773","grts_id":128773},"geometry":{"type":"Point","coordinates":[-95.591086518834828,49.137182321094656]}},
{"type":"Feature","properties":{"block_id":"CA-245335","grts_id":245335},"geometry":{"type":"Point","coordinates":[-104.54457238511192,49.135153131415755]}},
{"type":"Feature","properties":{"block_id":"CA-184324","grts_id":184324},"geometry":{"type":"Point","coordinates":[-73.415530314329629,46.189850675355672]}},
{"type":"Feature","properties":{"block_id":"CA-260869","grts_id":260869},"geometry":{"type":"Point","coordinates":[-94.241549747123372,49.059529652149905]}},
{"type":"Feature","properties":{"block_id":"CA-195333","grts_id":195333},"geometry":{"type":"Point","coordinates":[-94.105906015378224,49.058012662457628]}},
{"type":"Feature","properties":{"block_id":"CA-270325","grts_id":270325},"geometry":{"type":"Point","coordinates":[-93.434632191021166,49.001694188490212]}},
{"type":"Feature","properties":{"block_id":"CA-19169","grts_id":19169},"geometry":{"type":"Point","coordinates":[-81.68504818197961,47.766277377413317]}},
{"type":"Feature","properties":{"block_id":"CA-310303","grts_id":310303},"geometry":{"type":"Point","coordinates":[-72.598856097603573,45.938050652973132]}},
{"type":"Feature","properties":{"block_id":"CA-145495","grts_id":145495},"geometry":{"type":"Point","coordinates":[-100.881183531463989,49.133965244008806]}},
{"type":"Feature","properties":{"block_id":"CA-143493","grts_id":143493},"geometry":{"type":"Point","coordinates":[-98.305877980527555,49.122869153094094]}},
{"type":"Feature","properties":{"block_id":"CA-110689","grts_id":110689},"geometry":{"type":"Point","coordinates":[-76.048474156029926,46.651378450670151]}},
{"type":"Feature","properties":{"block_id":"CA-275637","grts_id":275637},"geometry":{"type":"Point","coordinates":[-97.904045732921801,49.019122990605766]}},
{"type":"Feature","properties":{"block_id":"CA-216161","grts_id":216161},"geometry":{"type":"Point","coordinates":[-73.747117454595013,46.093781795411758]}},
{"type":"Feature","properties":{"block_id":"CA-154721","grts_id":154721},"geometry":{"type":"Point","coordinates":[-73.631228057637202,46.056418702008258]}},
{"type":"Feature","properties":{"block_id":"CA-163553","grts_id":163553},"geometry":{"type":"Point","coordinates":[-80.216163048013399,47.365791417759752]}},
{"type":"Feature","properties":{"block_id":"CA-335153","grts_id":335153},"geometry":{"type":"Point","coordinates":[-93.997650224533885,48.853296376306204]}},
{"type":"Feature","properties":{"block_id":"CA-143041","grts_id":143041},"geometry":{"type":"Point","coordinates":[-73.280492719977744,45.950480106945896]}},
{"type":"Feature","properties":{"block_id":"CA-24241","grts_id":24241},"geometry":{"type":"Point","coordinates":[-92.924586221235813,48.791367956660117]}},
{"type":"Feature","properties":{"block_id":"CA-253633","grts_id":253633},"geometry":{"type":"Point","coordinates":[-73.048695039983926,45.877125711875507]}},
{"type":"Feature","properties":{"block_id":"CA-273238","grts_id":273238},"geometry":{"type":"Point","coordinates":[-77.468383001038944,46.819972472936946]}},
{"type":"Feature","properties":{"block_id":"CA-242785","grts_id":242785},"geometry":{"type":"Point","coordinates":[-75.378534664871466,46.366362631354505]}},
{"type":"Feature","properties":{"block_id":"CA-167969","grts_id":167969},"geometry":{"type":"Point","coordinates":[-78.60818009966124,47.003379091139152]}},
{"type":"Feature","properties":{"block_id":"CA-274078","grts_id":274078},"geometry":{"type":"Point","coordinates":[-76.619293146229225,46.6073762261437]}},
{"type":"Feature","properties":{"block_id":"CA-80645","grts_id":80645},"geometry":{"type":"Point","coordinates":[-93.607715739193168,48.741809560608829]}},
{"type":"Feature","properties":{"block_id":"CA-33889","grts_id":33889},"geometry":{"type":"Point","coordinates":[-76.258958093712607,46.511560416447693]}},
{"type":"Feature","properties":{"block_id":"CA-329317","grts_id":329317},"geometry":{"type":"Point","coordinates":[-92.539730262165904,48.664689721601988]}},
{"type":"Feature","properties":{"block_id":"CA-337884","grts_id":337884},"geometry":{"type":"Point","coordinates":[-73.097912278267174,45.793807859979722]}},
{"type":"Feature","properties":{"block_id":"CA-310678","grts_id":310678},"geometry":{"type":"Point","coordinates":[-81.5419064573192,47.449255172805138]}},
{"type":"Feature","properties":{"block_id":"CA-275932","grts_id":275932},"geometry":{"type":"Point","coordinates":[-75.423784561459314,46.282663861799236]}},
{"type":"Feature","properties":{"block_id":"CA-34913","grts_id":34913},"geometry":{"type":"Point","coordinates":[-75.187072155371283,46.21508929747332]}},
{"type":"Feature","properties":{"block_id":"CA-212252","grts_id":212252},"geometry":{"type":"Point","coordinates":[-65.584255893931825,43.62053307469624]}},
{"type":"Feature","properties":{"block_id":"CA-187057","grts_id":187057},"geometry":{"type":"Point","coordinates":[-92.154762121955343,48.549555070992156]}},
{"type":"Feature","properties":{"block_id":"CA-44737","grts_id":44737},"geometry":{"type":"Point","coordinates":[-73.030756925074144,45.675168920395727]}},
{"type":"Feature","properties":{"block_id":"CA-20769","grts_id":20769},"geometry":{"type":"Point","coordinates":[-77.552058847353962,46.651010640956741]}},
{"type":"Feature","properties":{"block_id":"CA-161473","grts_id":161473},"geometry":{"type":"Point","coordinates":[-72.569542975610929,45.529348904378985]}},
{"type":"Feature","properties":{"block_id":"CA-303453","grts_id":303453},"geometry":{"type":"Point","coordinates":[-73.775964768564918,45.805407783465469]}},
{"type":"Feature","properties":{"block_id":"CA-63169","grts_id":63169},"geometry":{"type":"Point","coordinates":[-72.340316972256261,45.45500181811137]}},
{"type":"Feature","properties":{"block_id":"CA-266435","grts_id":266435},"geometry":{"type":"Point","coordinates":[-77.473554319554438,46.534540056686652]}},
{"type":"Feature","properties":{"block_id":"CA-175057","grts_id":175057},"geometry":{"type":"Point","coordinates":[-79.096944024575564,46.829752938093932]}},
{"type":"Feature","properties":{"block_id":"CA-52321","grts_id":52321},"geometry":{"type":"Point","coordinates":[-73.708526254744356,45.684834053742236]}},
{"type":"Feature","properties":{"block_id":"CA-102113","grts_id":102113},"geometry":{"type":"Point","coordinates":[-79.873704342528896,46.90918516697915]}},
{"type":"Feature","properties":{"block_id":"CA-212417","grts_id":212417},"geometry":{"type":"Point","coordinates":[-71.709471933459355,45.142858157978111]}},
{"type":"Feature","properties":{"block_id":"CA-64609","grts_id":64609},"geometry":{"type":"Point","coordinates":[-75.089930357071395,45.892420801575362]}},
{"type":"Feature","properties":{"block_id":"CA-8145","grts_id":8145},"geometry":{"type":"Point","coordinates":[-78.68993148256439,46.539461804596819]}},
{"type":"Feature","properties":{"block_id":"CA-264577","grts_id":264577},"geometry":{"type":"Point","coordinates":[-78.567465121440605,46.512581931490075]}},
{"type":"Feature","properties":{"block_id":"CA-42081","grts_id":42081},"geometry":{"type":"Point","coordinates":[-76.481497157009301,46.081176847156783]}},
{"type":"Feature","properties":{"block_id":"CA-211921","grts_id":211921},"geometry":{"type":"Point","coordinates":[-79.460329730187397,46.624441595709129]}},
{"type":"Feature","properties":{"block_id":"CA-217185","grts_id":217185},"geometry":{"type":"Point","coordinates":[-75.769891633122853,45.888345754702208]}},
{"type":"Feature","properties":{"block_id":"CA-86113","grts_id":86113},"geometry":{"type":"Point","coordinates":[-75.651987173911181,45.855411816009251]}},
{"type":"Feature","properties":{"block_id":"CA-191585","grts_id":191585},"geometry":{"type":"Point","coordinates":[-73.969057523953722,45.465740652164875]}},
{"type":"Feature","properties":{"block_id":"CA-63521","grts_id":63521},"geometry":{"type":"Point","coordinates":[-77.762299186657359,46.220377969073468]}},
{"type":"Feature","properties":{"block_id":"CA-280196","grts_id":280196},"geometry":{"type":"Point","coordinates":[-76.926119064200378,46.002917055672761]}},
{"type":"Feature","properties":{"block_id":"CA-56801","grts_id":56801},"geometry":{"type":"Point","coordinates":[-80.148551088861268,46.58827340888142]}},
{"type":"Feature","properties":{"block_id":"CA-204257","grts_id":204257},"geometry":{"type":"Point","coordinates":[-81.169274181929296,46.711264900335507]}},
{"type":"Feature","properties":{"block_id":"CA-184417","grts_id":184417},"geometry":{"type":"Point","coordinates":[-75.623995096157927,45.652636305217115]}},
{"type":"Feature","properties":{"block_id":"CA-332255","grts_id":332255},"geometry":{"type":"Point","coordinates":[-78.689847666853765,46.249292975981618]}},
{"type":"Feature","properties":{"block_id":"CA-171489","grts_id":171489},"geometry":{"type":"Point","coordinates":[-80.186798309972744,46.49952035122196]}},
{"type":"Feature","properties":{"block_id":"CA-191457","grts_id":191457},"geometry":{"type":"Point","coordinates":[-81.824028164878939,46.746486892632262]}},
{"type":"Feature","properties":{"block_id":"CA-71649","grts_id":71649},"geometry":{"type":"Point","coordinates":[-82.977335885546481,46.872745028149559]}},
{"type":"Feature","properties":{"block_id":"CA-321457","grts_id":321457},"geometry":{"type":"Point","coordinates":[-82.603064460117196,46.803556095537566]}},
{"type":"Feature","properties":{"block_id":"CA-281342","grts_id":281342},"geometry":{"type":"Point","coordinates":[-75.597758428686035,45.446806674493665]}},
{"type":"Feature","properties":{"block_id":"CA-60897","grts_id":60897},"geometry":{"type":"Point","coordinates":[-80.873166640384483,46.456537932225757]}},
{"type":"Feature","properties":{"block_id":"CA-54625","grts_id":54625},"geometry":{"type":"Point","coordinates":[-75.059814191585502,45.196951013337987]}},
{"type":"Feature","properties":{"block_id":"CA-64481","grts_id":64481},"geometry":{"type":"Point","coordinates":[-82.174671232381755,46.530624778748312]}},
{"type":"Feature","properties":{"block_id":"CA-20449","grts_id":20449},"geometry":{"type":"Point","coordinates":[-82.050388769629336,46.508443927876094]}},
{"type":"Feature","properties":{"block_id":"CA-310238","grts_id":310238},"geometry":{"type":"Point","coordinates":[-79.692726186592751,46.099375691796681]}},
{"type":"Feature","properties":{"block_id":"CA-47905","grts_id":47905},"geometry":{"type":"Point","coordinates":[-75.686887679641899,45.276324162513852]}},
{"type":"Feature","properties":{"block_id":"CA-257505","grts_id":257505},"geometry":{"type":"Point","coordinates":[-80.701516848888446,46.228416077150172]}},
{"type":"Feature","properties":{"block_id":"CA-196385","grts_id":196385},"geometry":{"type":"Point","coordinates":[-76.903889107757081,45.5088786235615]}},
{"type":"Feature","properties":{"block_id":"CA-251873","grts_id":251873},"geometry":{"type":"Point","coordinates":[-82.119494667300273,46.32934773040418]}},
{"type":"Feature","properties":{"block_id":"CA-206817","grts_id":206817},"geometry":{"type":"Point","coordinates":[-81.996689186789609,46.30467140594773]}},
{"type":"Feature","properties":{"block_id":"CA-180001","grts_id":180001},"geometry":{"type":"Point","coordinates":[-76.871344677328139,45.305398777696368]}},
{"type":"Feature","properties":{"block_id":"CA-163617","grts_id":163617},"geometry":{"type":"Point","coordinates":[-76.519266519093492,45.211909817091396]}},
{"type":"Feature","properties":{"block_id":"CA-226209","grts_id":226209},"geometry":{"type":"Point","coordinates":[-83.542804480719809,46.408478935610006]}},
{"type":"Feature","properties":{"block_id":"CA-71969","grts_id":71969},"geometry":{"type":"Point","coordinates":[-80.204323209350378,45.834584408596015]}},
{"type":"Feature","properties":{"block_id":"CA-285393","grts_id":285393},"geometry":{"type":"Point","coordinates":[-77.897516718574167,45.376860960584509]}},
{"type":"Feature","properties":{"block_id":"CA-105249","grts_id":105249},"geometry":{"type":"Point","coordinates":[-76.955992364136819,45.13317321015505]}},
{"type":"Feature","properties":{"block_id":"CA-226017","grts_id":226017},"geometry":{"type":"Point","coordinates":[-80.399872164246304,45.682733810552776]}},
{"type":"Feature","properties":{"block_id":"CA-108513","grts_id":108513},"geometry":{"type":"Point","coordinates":[-82.00943379784016,45.929156479399936]}},
{"type":"Feature","properties":{"block_id":"CA-143137","grts_id":143137},"geometry":{"type":"Point","coordinates":[-76.29937178742145,44.85767386318949]}},
{"type":"Feature","properties":{"block_id":"CA-94497","grts_id":94497},"geometry":{"type":"Point","coordinates":[-79.320014547570167,45.439830085546546]}},
{"type":"Feature","properties":{"block_id":"CA-236321","grts_id":236321},"geometry":{"type":"Point","coordinates":[-76.924087445733818,44.928224037158941]}},
{"type":"Feature","properties":{"block_id":"CA-256801","grts_id":256801},"geometry":{"type":"Point","coordinates":[-76.966215356115868,44.841710189867541]}},
{"type":"Feature","properties":{"block_id":"CA-105633","grts_id":105633},"geometry":{"type":"Point","coordinates":[-82.199020312830655,45.775117225362777]}},
{"type":"Feature","properties":{"block_id":"CA-129889","grts_id":129889},"geometry":{"type":"Point","coordinates":[-81.712797857632211,45.67889833855817]}},
{"type":"Feature","properties":{"block_id":"CA-160033","grts_id":160033},"geometry":{"type":"Point","coordinates":[-79.397005600364494,45.26365082696416]}},
{"type":"Feature","properties":{"block_id":"CA-214049","grts_id":214049},"geometry":{"type":"Point","coordinates":[-77.591178204848319,44.908536770869731]}},
{"type":"Feature","properties":{"block_id":"CA-192801","grts_id":192801},"geometry":{"type":"Point","coordinates":[-78.922464807761585,45.151097524447167]}},
{"type":"Feature","properties":{"block_id":"CA-334243","grts_id":334243},"geometry":{"type":"Point","coordinates":[-76.545042271999407,44.628407977321316]}},
{"type":"Feature","properties":{"block_id":"CA-81697","grts_id":81697},"geometry":{"type":"Point","coordinates":[-76.199105540483629,44.532010861878064]}},
{"type":"Feature","properties":{"block_id":"CA-68129","grts_id":68129},"geometry":{"type":"Point","coordinates":[-78.647702106151286,44.887929840702625]}},
{"type":"Feature","properties":{"block_id":"CA-259617","grts_id":259617},"geometry":{"type":"Point","coordinates":[-78.686542024914161,44.80110181989167]}},
{"type":"Feature","properties":{"block_id":"CA-279987","grts_id":279987},"geometry":{"type":"Point","coordinates":[-77.215618154067442,44.322273475148123]}},
{"type":"Feature","properties":{"block_id":"CA-30241","grts_id":30241},"geometry":{"type":"Point","coordinates":[-78.764871367448606,44.624962812079687]}},
{"type":"Feature","properties":{"block_id":"CA-291969","grts_id":291969},"geometry":{"type":"Point","coordinates":[-77.990285646031992,44.33025331815594]}},
{"type":"Feature","properties":{"block_id":"CA-98913","grts_id":98913},"geometry":{"type":"Point","coordinates":[-76.994800386711916,43.968596421737232]}},
{"type":"Feature","properties":{"block_id":"CA-74273","grts_id":74273},"geometry":{"type":"Point","coordinates":[-78.415324811954065,44.247589813914288]}},
{"type":"Feature","properties":{"block_id":"CA-107041","grts_id":107041},"geometry":{"type":"Point","coordinates":[-78.068115183380741,44.159325012185462]}},
{"type":"Feature","properties":{"block_id":"CA-4705","grts_id":4705},"geometry":{"type":"Point","coordinates":[-77.493883002051689,44.00544325292848]}},
{"type":"Feature","properties":{"block_id":"CA-273008","grts_id":273008},"geometry":{"type":"Point","coordinates":[-80.476007339616231,44.547262281922649]}},
{"type":"Feature","properties":{"block_id":"CA-93729","grts_id":93729},"geometry":{"type":"Point","coordinates":[-79.844807078972465,44.209887551896898]}},
{"type":"Feature","properties":{"block_id":"CA-40801","grts_id":40801},"geometry":{"type":"Point","coordinates":[-81.286659379010246,44.440868497843681]}},
{"type":"Feature","properties":{"block_id":"CA-79393","grts_id":79393},"geometry":{"type":"Point","coordinates":[-79.149249918247548,44.038399842130715]}},
{"type":"Feature","properties":{"block_id":"CA-13857","grts_id":13857},"geometry":{"type":"Point","coordinates":[-79.031614709793104,44.014304406105353]}},
{"type":"Feature","properties":{"block_id":"CA-13089","grts_id":13089},"geometry":{"type":"Point","coordinates":[-80.851399634193115,44.247757158757963]}},
{"type":"Feature","properties":{"block_id":"CA-78625","grts_id":78625},"geometry":{"type":"Point","coordinates":[-80.617201770238836,44.195198323008498]}},
{"type":"Feature","properties":{"block_id":"CA-18209","grts_id":18209},"geometry":{"type":"Point","coordinates":[-80.266555007638487,44.11587284325531]}},
{"type":"Feature","properties":{"block_id":"CA-1825","grts_id":1825},"geometry":{"type":"Point","coordinates":[-80.303181347403878,44.025225103628969]}},
{"type":"Feature","properties":{"block_id":"CA-250657","grts_id":250657},"geometry":{"type":"Point","coordinates":[-79.60700864012432,43.861061131846668]}},
{"type":"Feature","properties":{"block_id":"CA-135969","grts_id":135969},"geometry":{"type":"Point","coordinates":[-80.105902133853249,43.884181984412997]}},
{"type":"Feature","properties":{"block_id":"CA-12705","grts_id":12705},"geometry":{"type":"Point","coordinates":[-81.422385507341446,44.086034335999337]}},
{"type":"Feature","properties":{"block_id":"CA-310085","grts_id":310085},"geometry":{"type":"Point","coordinates":[-80.989775774847544,43.893100590310581]}},
{"type":"Feature","properties":{"block_id":"CA-326294","grts_id":326294},"geometry":{"type":"Point","coordinates":[-80.408137434567621,43.763344801407996]}},
{"type":"Feature","properties":{"block_id":"CA-128801","grts_id":128801},"geometry":{"type":"Point","coordinates":[-80.479737024997632,43.582915180428429]}},
{"type":"Feature","properties":{"block_id":"CA-332408","grts_id":332408},"geometry":{"type":"Point","coordinates":[-80.249038925616276,43.529140854076772]}},
{"type":"Feature","properties":{"block_id":"CA-279814","grts_id":279814},"geometry":{"type":"Point","coordinates":[-79.824229324900443,43.33362875575105]}},
{"type":"Feature","properties":{"block_id":"CA-42785","grts_id":42785},"geometry":{"type":"Point","coordinates":[-79.860569920126736,43.244180343337931]}},
{"type":"Feature","properties":{"block_id":"CA-141089","grts_id":141089},"geometry":{"type":"Point","coordinates":[-80.458797596463327,42.998191484692413]}},
{"type":"Feature","properties":{"block_id":"CA-56369","grts_id":56369},"geometry":{"type":"Point","coordinates":[-81.670445706699283,43.082994818004309]}},
{"type":"Feature","properties":{"block_id":"CA-24273","grts_id":24273},"geometry":{"type":"Point","coordinates":[-80.412932649953632,42.796861155151504]}},
{"type":"Feature","properties":{"block_id":"CA-303334","grts_id":303334},"geometry":{"type":"Point","coordinates":[-81.130787506898457,42.865865796228078]}},
{"type":"Feature","properties":{"block_id":"CA-126673","grts_id":126673},"geometry":{"type":"Point","coordinates":[-80.5950144796046,42.646622219048396]}},
{"type":"Feature","properties":{"block_id":"CA-44081","grts_id":44081},"geometry":{"type":"Point","coordinates":[-81.538345093097291,42.767384177110365]}},
{"type":"Feature","properties":{"block_id":"CA-188721","grts_id":188721},"geometry":{"type":"Point","coordinates":[-82.372454046264849,42.849461749792127]}},
{"type":"Feature","properties":{"block_id":"CA-320946","grts_id":320946},"geometry":{"type":"Point","coordinates":[-81.636473615030212,42.497528087214732]}},
{"type":"Feature","properties":{"block_id":"CA-135473","grts_id":135473},"geometry":{"type":"Point","coordinates":[-82.123221117940233,42.508508496308302]}},
{"type":"Feature","properties":{"block_id":"CA-180529","grts_id":180529},"geometry":{"type":"Point","coordinates":[-81.927102833586531,42.370366218028593]}},
{"type":"Feature","properties":{"block_id":"CA-188385","grts_id":188385},"geometry":{"type":"Point","coordinates":[-82.731935692222208,42.157318685465512]}}
]
}
